{
  "type": "FeatureCollection",
  "features": [
    {
      "type": "Feature",
      "properties": {
        "norad_id": 30701,
        "name": "FENGYUN 1C DEB",
        "group": "fengyun-1c-debris",
        "lat": -13.998967920428058,
        "lon": 29.305909509094267,
        "alt_km": 863.0600380342012,
        "timestamp": "2025-12-11T18:59:46.351535+00:00",
        "meta_object_name": "FENGYUN 1C DEB",
        "meta_object_id": "1999-025ARK",
        "meta_epoch": "2025-12-11T02:12:45.057024",
        "meta_mean_motion": 14.13934327,
        "meta_eccentricity": 0.00357037,
        "meta_inclination": 98.7186,
        "meta_ra_of_asc_node": 26.4314,
        "meta_arg_of_pericenter": 107.3142,
        "meta_mean_anomaly": 281.3309,
        "meta_ephemeris_type": 0,
        "meta_classification_type": "U",
        "meta_norad_cat_id": 30701,
        "meta_element_set_no": 999,
        "meta_rev_at_epoch": 97096,
        "meta_bstar": 1.9568194e-05,
        "meta_mean_motion_dot": -5e-08,
        "meta_mean_motion_ddot": 0,
        "tle_line1": "1 30701U 99025ARK 25345.09218816 -.00000005  00000+0  19568-4 0  9998",
        "tle_line2": "2 30701  98.7186  26.4314 0035703 107.3142 281.3309 14.13934327970962"
      },
      "geometry": {
        "type": "Point",
        "coordinates": [
          29.305909509094267,
          -13.998967920428058
        ]
      }
    },
    {
      "type": "Feature",
      "properties": {
        "norad_id": 30702,
        "name": "FENGYUN 1C DEB",
        "group": "fengyun-1c-debris",
        "lat": -34.34959912345646,
        "lon": 11.72086912987022,
        "alt_km": 840.984514406483,
        "timestamp": "2025-12-11T18:59:46.351545+00:00",
        "meta_object_name": "FENGYUN 1C DEB",
        "meta_object_id": "1999-025ARL",
        "meta_epoch": "2025-12-11T00:28:46.199424",
        "meta_mean_motion": 14.03585456,
        "meta_eccentricity": 0.00685034,
        "meta_inclination": 98.7696,
        "meta_ra_of_asc_node": 4.9212,
        "meta_arg_of_pericenter": 306.716,
        "meta_mean_anomaly": 81.9829,
        "meta_ephemeris_type": 0,
        "meta_classification_type": "U",
        "meta_norad_cat_id": 30702,
        "meta_element_set_no": 999,
        "meta_rev_at_epoch": 96138,
        "meta_bstar": 0.00098892536,
        "meta_mean_motion_dot": 1.541e-05,
        "meta_mean_motion_ddot": 0,
        "tle_line1": "1 30702U 99025ARL 25345.01997916  .00001541  00000+0  98893-3 0  9998",
        "tle_line2": "2 30702  98.7696   4.9212 0068503 306.7160  81.9829 14.03585456961387"
      },
      "geometry": {
        "type": "Point",
        "coordinates": [
          11.72086912987022,
          -34.34959912345646
        ]
      }
    },
    {
      "type": "Feature",
      "properties": {
        "norad_id": 30703,
        "name": "FENGYUN 1C DEB",
        "group": "fengyun-1c-debris",
        "lat": 13.995280874761944,
        "lon": -31.510677581666403,
        "alt_km": 812.1310578492412,
        "timestamp": "2025-12-11T18:59:46.351557+00:00",
        "meta_object_name": "FENGYUN 1C DEB",
        "meta_object_id": "1999-025ARM",
        "meta_epoch": "2025-12-09T11:42:09.722592",
        "meta_mean_motion": 14.19299158,
        "meta_eccentricity": 0.0117888,
        "meta_inclination": 99.1419,
        "meta_ra_of_asc_node": 328.4128,
        "meta_arg_of_pericenter": 301.32,
        "meta_mean_anomaly": 186.3927,
        "meta_ephemeris_type": 0,
        "meta_classification_type": "U",
        "meta_norad_cat_id": 30703,
        "meta_element_set_no": 999,
        "meta_rev_at_epoch": 96494,
        "meta_bstar": 0.0021336127,
        "meta_mean_motion_dot": 4.754e-05,
        "meta_mean_motion_ddot": 0,
        "tle_line1": "1 30703U 99025ARM 25343.48761253  .00004754  00000+0  21336-2 0  9997",
        "tle_line2": "2 30703  99.1419 328.4128 0117888 301.3200 186.3927 14.19299158964945"
      },
      "geometry": {
        "type": "Point",
        "coordinates": [
          -31.510677581666403,
          13.995280874761944
        ]
      }
    },
    {
      "type": "Feature",
      "properties": {
        "norad_id": 30704,
        "name": "FENGYUN 1C DEB",
        "group": "fengyun-1c-debris",
        "lat": 13.346113509753971,
        "lon": -17.56632620725083,
        "alt_km": 886.0241313690549,
        "timestamp": "2025-12-11T18:59:46.351568+00:00",
        "meta_object_name": "FENGYUN 1C DEB",
        "meta_object_id": "1999-025ARN",
        "meta_epoch": "2025-12-10T22:31:16.986720",
        "meta_mean_motion": 14.02044133,
        "meta_eccentricity": 0.0081699,
        "meta_inclination": 98.8718,
        "meta_ra_of_asc_node": 343.7271,
        "meta_arg_of_pericenter": 104.8288,
        "meta_mean_anomaly": 286.1097,
        "meta_ephemeris_type": 0,
        "meta_classification_type": "U",
        "meta_norad_cat_id": 30704,
        "meta_element_set_no": 999,
        "meta_rev_at_epoch": 96086,
        "meta_bstar": 0.00058715,
        "meta_mean_motion_dot": 8.8e-06,
        "meta_mean_motion_ddot": 0,
        "tle_line1": "1 30704U 99025ARN 25344.93839105  .00000880  00000+0  58715-3 0  9999",
        "tle_line2": "2 30704  98.8718 343.7271 0081699 104.8288 286.1097 14.02044133960862"
      },
      "geometry": {
        "type": "Point",
        "coordinates": [
          -17.56632620725083,
          13.346113509753971
        ]
      }
    },
    {
      "type": "Feature",
      "properties": {
        "norad_id": 30705,
        "name": "FENGYUN 1C DEB",
        "group": "fengyun-1c-debris",
        "lat": 39.80698635298795,
        "lon": -79.93761041557529,
        "alt_km": 1075.5333190019674,
        "timestamp": "2025-12-11T18:59:46.351578+00:00",
        "meta_object_name": "FENGYUN 1C DEB",
        "meta_object_id": "1999-025ARP",
        "meta_epoch": "2025-12-10T12:51:17.804736",
        "meta_mean_motion": 13.81301989,
        "meta_eccentricity": 0.01995956,
        "meta_inclination": 102.1802,
        "meta_ra_of_asc_node": 88.0772,
        "meta_arg_of_pericenter": 287.3704,
        "meta_mean_anomaly": 90.779,
        "meta_ephemeris_type": 0,
        "meta_classification_type": "U",
        "meta_norad_cat_id": 30705,
        "meta_element_set_no": 999,
        "meta_rev_at_epoch": 93979,
        "meta_bstar": 0.0032304479,
        "meta_mean_motion_dot": 3.923e-05,
        "meta_mean_motion_ddot": 0,
        "tle_line1": "1 30705U 99025ARP 25344.53562274  .00003923  00000+0  32304-2 0  9992",
        "tle_line2": "2 30705 102.1802  88.0772 0199595 287.3704  90.7790 13.81301989939794"
      },
      "geometry": {
        "type": "Point",
        "coordinates": [
          -79.93761041557529,
          39.80698635298795
        ]
      }
    },
    {
      "type": "Feature",
      "properties": {
        "norad_id": 30706,
        "name": "FENGYUN 1C DEB",
        "group": "fengyun-1c-debris",
        "lat": -72.36727488031269,
        "lon": -89.48587482766587,
        "alt_km": 828.0813848940688,
        "timestamp": "2025-12-11T18:59:46.351588+00:00",
        "meta_object_name": "FENGYUN 1C DEB",
        "meta_object_id": "1999-025ARQ",
        "meta_epoch": "2025-12-11T04:11:48.425856",
        "meta_mean_motion": 14.26414807,
        "meta_eccentricity": 0.00264496,
        "meta_inclination": 99.0643,
        "meta_ra_of_asc_node": 239.7275,
        "meta_arg_of_pericenter": 132.8298,
        "meta_mean_anomaly": 227.511,
        "meta_ephemeris_type": 0,
        "meta_classification_type": "U",
        "meta_norad_cat_id": 30706,
        "meta_element_set_no": 999,
        "meta_rev_at_epoch": 97605,
        "meta_bstar": 0.0012545773,
        "meta_mean_motion_dot": 2.983e-05,
        "meta_mean_motion_ddot": 0,
        "tle_line1": "1 30706U 99025ARQ 25345.17486604  .00002983  00000+0  12546-2 0  9997",
        "tle_line2": "2 30706  99.0643 239.7275 0026449 132.8298 227.5110 14.26414807976054"
      },
      "geometry": {
        "type": "Point",
        "coordinates": [
          -89.48587482766587,
          -72.36727488031269
        ]
      }
    },
    {
      "type": "Feature",
      "properties": {
        "norad_id": 30707,
        "name": "FENGYUN 1C DEB",
        "group": "fengyun-1c-debris",
        "lat": 23.96297734062573,
        "lon": -135.67593996158834,
        "alt_km": 799.6772348244322,
        "timestamp": "2025-12-11T18:59:46.351598+00:00",
        "meta_object_name": "FENGYUN 1C DEB",
        "meta_object_id": "1999-025ARR",
        "meta_epoch": "2025-12-10T20:39:03.394944",
        "meta_mean_motion": 14.26664032,
        "meta_eccentricity": 0.002791,
        "meta_inclination": 99.4128,
        "meta_ra_of_asc_node": 39.0955,
        "meta_arg_of_pericenter": 75.3903,
        "meta_mean_anomaly": 340.637,
        "meta_ephemeris_type": 0,
        "meta_classification_type": "U",
        "meta_norad_cat_id": 30707,
        "meta_element_set_no": 999,
        "meta_rev_at_epoch": 96776,
        "meta_bstar": 0.0021423,
        "meta_mean_motion_dot": 5.153e-05,
        "meta_mean_motion_ddot": 0,
        "tle_line1": "1 30707U 99025ARR 25344.86045596  .00005153  00000+0  21423-2 0  9990",
        "tle_line2": "2 30707  99.4128  39.0955 0027910  75.3903 340.6370 14.26664032967761"
      },
      "geometry": {
        "type": "Point",
        "coordinates": [
          -135.67593996158834,
          23.96297734062573
        ]
      }
    }
  ]
}